LANDSAT 9               
1 49260U 21088A   24240.65603989  .00001084  00000+0  25058-3 0  9993
2 49260  98.2267 309.3696 0001189  92.5340 267.5995 14.57109402155091
